ONEWEB-0258             
1 48976U 21060K   24291.20465711 -.00000378  00000+0 -10214-2 0  9996
2 48976  87.9137 349.9034 0002007  95.8872 264.2488 13.16600147160876
ONEWEB-0259             
1 48977U 21060L   24291.19832861 -.00000203  00000+0 -56503-3 0  9998
2 48977  87.9137 349.8876 0002072  90.6454 269.4914 13.16595759160919
ONEWEB-0260             
1 48978U 21060M   24290.58164039 -.00000025  00000+0 -98491-4 0  9991
2 48978  87.9150 350.0416 0002022 115.7490 244.3849 13.16596354159529
ONEWEB-0261             
1 48979U 21060N   24290.24679135  .00000062  00000+0  12911-3 0  9994
2 48979  87.9151 350.1040 0002433 102.4550 257.6853 13.16592772159534
ONEWEB-0262             
1 48980U 21060P   24290.22778604  .00000109  00000+0  25125-3 0  9998
2 48980  87.9148 350.0692 0002231  91.1417 268.9970 13.16597628159491
ONEWEB-0263             
1 48981U 21060Q   24290.86744737  .00000019  00000+0  16862-4 0  9998
2 48981  87.9153 349.9618 0002384  96.2193 263.9209 13.16597548159546
ONEWEB-0264             
1 48982U 21060R   24291.20862815  .00000103  00000+0  23545-3 0  9995
2 48982  87.9150 349.9051 0002004  97.5480 262.5879 13.16593324160882
ONEWEB-0266             
1 48984U 21060T   24290.92601716  .00000124  00000+0  28977-3 0  9993
2 48984  87.9148 349.9355 0001800  93.9414 266.1923 13.16591782159545
